ONEWEB-0395             
1 50475U 21132G   26187.92790216 -.00000285  00000+0 -83966-3 0  9991
2 50475  87.8878  17.1359 0002077  86.0441 274.0924 13.11415357218307
ONEWEB-0396             
1 50476U 21132H   26187.89513993  .00000100  00000+0  22001-3 0  9990
2 50476  87.9189 331.5356 0001779  91.7415 268.3921 13.18685769224231
ONEWEB-0397             
1 50477U 21132J   26187.91031230  .00000025  00000+0  31597-4 0  9990
2 50477  87.9189 331.5324 0001649  92.5840 267.5481 13.18686225224212
ONEWEB-0398             
1 50478U 21132K   26187.89570201  .00000494  00000+0  13585-2 0  9999
2 50478  87.8887  17.1343 0002165  89.7905 270.3471 13.11416786218196
ONEWEB-0399             
1 50479U 21132L   26187.57694700  .00000144  00000+0  37019-3 0  9997
2 50479  87.8890  17.2090 0001737  72.9621 287.1698 13.11418094218140
ONEWEB-0400             
1 50480U 21132M   26187.88837733  .00000184  00000+0  43276-3 0  9994
2 50480  87.9192 331.5261 0002027  97.3096 262.8266 13.18694571224208
ONEWEB-0401             
1 50481U 21132N   26187.93392147  .00000023  00000+0  25400-4 0  9998
2 50481  87.9191 331.5146 0001657 101.0525 259.0794 13.18686128224212
ONEWEB-0402             
1 50482U 21132P   26187.89682178  .00000068  00000+0  14018-3 0  9991
2 50482  87.9191 331.5114 0001399 102.2199 257.9090 13.18686928224237
ONEWEB-0403             
1 50483U 21132Q   26187.92211856  .00000015  00000+0  52429-5 0  9999
2 50483  87.9191 331.5305 0001867  92.2569 267.8777 13.18685844224192
ONEWEB-0404             
1 50484U 21132R   26187.93976146 -.00000450  00000+0 -13066-2 0  9997
2 50484  87.8883  17.1340 0001961  79.1952 280.9397 13.11416793218286
ONEWEB-0405             
1 50485U 21132S   26187.93559291  .00000035  00000+0  55495-4 0  9997
2 50485  87.9193 331.5126 0002320 100.0306 260.1088 13.18684369224595
ONEWEB-0406             
1 50486U 21132T   26187.92717316  .00000014  00000+0  16929-5 0  9998
2 50486  87.9187 331.5296 0001958  81.1440 278.9913 13.18686118224229
ONEWEB-0407             
1 50487U 21132U   26187.92042459  .00000036  00000+0  57702-4 0  9995
2 50487  87.9190 331.5239 0001858 103.6591 256.4748 13.18687545224162
ONEWEB-0409             
1 50488U 21132V   26187.55658844 -.00000524  00000+0 -15131-2 0  9998
2 50488  87.8887  17.1994 0002048  82.6074 277.5287 13.11416280218124
ONEWEB-0412             
1 50489U 21132W   26187.90862602  .00000044  00000+0  77934-4 0  9993
2 50489  87.9187 331.5343 0001555  99.6206 260.5102 13.18686014224257
ONEWEB-0413             
1 50490U 21132X   26187.91368787  .00000066  00000+0  13532-3 0  9998
2 50490  87.9179 331.5302 0001666 104.9555 255.1762 13.18686934224191
ONEWEB-0414             
1 50491U 21132Y   26187.89851059  .00000053  00000+0  10178-3 0  9994
2 50491  87.9188 331.5173 0001692  94.3492 265.7833 13.18686202224227
ONEWEB-0417             
1 50492U 21132Z   26187.90693831  .00000026  00000+0  33807-4 0  9994
2 50492  87.9181 331.5336 0001937  89.5967 270.5387 13.18686490224202
ONEWEB-0418             
1 50493U 21132AA  26187.91691322  .00000063  00000+0  12797-3 0  9994
2 50493  87.9184 331.5322 0001964  89.2803 270.8554 13.18685698224261
ONEWEB-0419             
1 50494U 21132AB  26187.93581470  .00000038  00000+0  63511-4 0  9992
2 50494  87.9191 331.5286 0002128  93.5423 266.5952 13.18666040224183
ONEWEB-0420             
1 50495U 21132AC  26187.90018406  .00000031  00000+0  45436-4 0  9993
2 50495  87.9180 331.5372 0001882 102.7117 257.4226 13.18686844224173
ONEWEB-0421             
1 50496U 21132AD  26187.89345876  .00000103  00000+0  22747-3 0  9995
2 50496  87.9183 331.5367 0001485  92.4292 267.7010 13.18685847224211
ONEWEB-0424             
1 50497U 21132AE  26187.93054931 -.00000016  00000+0 -74366-4 0  9990
2 50497  87.9190 331.5280 0002236  96.1916 263.9470 13.18686344224247
ONEWEB-0426             
1 50498U 21132AF  26187.88923701  .00000071  00000+0  14750-3 0  9994
2 50498  87.9188 331.5276 0001608  74.7598 285.3712 13.18685419224182
ONEWEB-0427             
1 50499U 21132AG  26187.92886404  .00000001  00000+0 -29532-4 0  9997
2 50499  87.9191 331.5084 0001889  90.6411 269.4938 13.18686355224213
ONEWEB-0429             
1 50500U 21132AH  26187.91536464  .00000062  00000+0  12570-3 0  9996
2 50500  87.9183 331.5343 0001825 100.4667 259.6670 13.18686864224183
ONEWEB-0430             
1 50501U 21132AJ  26187.90356705  .00000048  00000+0  90130-4 0  9997
2 50501  87.9183 331.5351 0001974 103.5055 256.6297 13.18687785224223
ONEWEB-0432             
1 50502U 21132AK  26187.88657333  .00000037  00000+0  62229-4 0  9992
2 50502  87.9188 331.5245 0002308 100.9604 259.1788 13.18685810224178
ONEWEB-0440             
1 50503U 21132AL  26187.84792162  .00000036  00000+0  59478-4 0  9990
2 50503  87.9191 331.5434 0001573 103.1247 257.0061 13.18686886224168
ONEWEB-0450             
1 50504U 21132AM  26187.91719434  .00000141  00000+0  32439-3 0  9994
2 50504  87.9181 331.5330 0001870 102.4662 257.6680 13.18686348224207
ONEWEB-0410             
1 51622U 22012A   26187.88474598  .00000004  00000+0 -23198-4 0  9991
2 51622  87.9148   1.9398 0002256  55.6349 304.4996 13.17650013216294
ONEWEB-0411             
1 51623U 22012B   26187.94267483  .00000633  00000+0  17763-2 0  9998
2 51623  87.8825  32.3314 0002180  98.9697 261.1678 13.10374208211871
ONEWEB-0415             
1 51624U 22012C   26187.93927642  .00000545  00000+0  15247-2 0  9995
2 51624  87.8822  32.3302 0002130  88.8593 271.2778 13.10374993211878
ONEWEB-0416             
1 51625U 22012D   26187.95115422  .00000499  00000+0  13927-2 0  9994
2 51625  87.8814  32.3449 0002225  87.6733 272.4649 13.10372073211912
ONEWEB-0422             
1 51626U 22012E   26187.89486889  .00000058  00000+0  11601-3 0  9995
2 51626  87.9145   1.9387 0001616 110.5777 249.5528 13.17650727216403
ONEWEB-0423             
1 51627U 22012F   26187.88811204  .00000027  00000+0  36674-4 0  9992
2 51627  87.9138   1.9443 0001837  88.2311 271.9031 13.17647729216292
ONEWEB-0425             
1 51628U 22012G   26188.03769032  .00000089  00000+0  21953-3 0  9993
2 51628  87.8815  32.3114 0001945  75.1328 285.0015 13.10371204211928
ONEWEB-0428             
1 51629U 22012H   26187.94097310  .00000743  00000+0  20922-2 0  9997
2 51629  87.8817  32.3378 0001858  85.8849 274.2490 13.10375779211874
ONEWEB-0431             
1 51630U 22012J   26187.98659669 -.00000575  00000+0 -16848-2 0  9991
2 51630  87.8822  32.3215 0002214 100.1786 259.9591 13.10373502211931
ONEWEB-0434             
1 51631U 22012K   26187.58306898 -.00000245  00000+0 -73683-3 0  9996
2 51631  87.8819  32.4278 0001813  66.5126 293.6192 13.10365459211861
ONEWEB-0435             
1 51632U 22012L   26187.58969041 -.00002072  00000+0 -59750-2 0  9990
2 51632  87.8817  32.4125 0001985  99.3496 260.7856 13.10359173211852
ONEWEB-0436             
1 51633U 22012M   26187.95561132  .00000023  00000+0  27159-4 0  9993
2 51633  87.9146   1.9136 0001825  97.4300 262.7038 13.17650270216283
ONEWEB-0438             
1 51634U 22012N   26187.95622914  .00000327  00000+0  90135-3 0  9990
2 51634  87.8816  32.3416 0001916  80.9140 279.2204 13.10371996211939
ONEWEB-0439             
1 51635U 22012P   26187.57783609  .00000050  00000+0  10554-3 0  9998
2 51635  87.8813  32.4044 0001809  84.9234 275.2100 13.10370446211866
ONEWEB-0442             
1 51636U 22012Q   26187.94803992  .00000019  00000+0  16046-4 0  9996
2 51636  87.9137   1.9464 0001994  73.7555 286.3796 13.17650428216273
ONEWEB-0443             
1 51637U 22012R   26187.89148531  .00000014  00000+0  31764-5 0  9992
2 51637  87.9137   1.9588 0001531  88.5154 271.6152 13.17649333216318
ONEWEB-0444             
1 51638U 22012S   26187.94944969  .00000562  00000+0  15728-2 0  9995
2 51638  87.8815  32.3287 0001649  86.9228 273.2088 13.10373252211924
ONEWEB-0445             
1 51639U 22012T   26187.58797994 -.00000467  00000+0 -13728-2 0  9994
2 51639  87.8823  32.3906 0002113  86.7981 273.3388 13.10370055211880
ONEWEB-0446             
1 51640U 22012U   26187.94772992  .00000589  00000+0  16519-2 0  9991
2 51640  87.8817  32.3463 0002194  85.8312 274.3065 13.10370374211911
ONEWEB-0448             
1 51641U 22012V   26187.95284365  .00000424  00000+0  11779-2 0  9996
2 51641  87.8813  32.3412 0001812  86.5409 273.5925 13.10372803211884
ONEWEB-0449             
1 51642U 22012W   26187.57612584  .00000109  00000+0  27608-3 0  9992
2 51642  87.8818  32.4029 0002110  71.1207 289.0149 13.10370027211845
ONEWEB-0451             
1 51643U 22012X   26187.95224509  .00000010  00000+0 -80762-5 0  9995
2 51643  87.9148   1.9123 0001801  84.6534 275.4803 13.17650409216266
ONEWEB-0452             
1 51644U 22012Y   26187.87460875  .00000036  00000+0  59171-4 0  9991
2 51644  87.9140   1.9627 0001605  85.9293 274.2022 13.17650722216264
ONEWEB-0456             
1 51646U 22012AA  26187.58458207 -.00000354  00000+0 -10513-2 0  9997
2 51646  87.8826  32.3899 0001734  90.1957 269.9369 13.10368890211886
ONEWEB-0457             
1 51647U 22012AB  26187.94422744  .00000692  00000+0  19450-2 0  9997
2 51647  87.8818  32.3344 0002187  82.6143 277.5233 13.10374858211931
ONEWEB-0458             
1 51648U 22012AC  26187.96554304 -.00000183  00000+0 -55948-3 0  9998
2 51648  87.8818  32.3184 0001675  82.9378 277.1939 13.10369409211898
ONEWEB-0461             
1 51649U 22012AD  26188.12436733  .00000000  00000+0 -34152-4 0  9995
2 51649  87.9147   1.8919 0001975  89.4252 270.7105 13.17650232216510
ONEWEB-0463             
1 51650U 22012AE  26187.95393488 -.00000022  00000+0 -88815-4 0  9996
2 51650  87.9138   1.9465 0002046  90.7472 269.3894 13.17650858216274
ONEWEB-0464             
1 51651U 22012AF  26188.03936083 -.00000012  00000+0 -71928-4 0  9997
2 51651  87.8814  32.3250 0001528  88.9202 271.2100 13.10369216211926
ONEWEB-0468             
1 51652U 22012AG  26188.04442507 -.00000258  00000+0 -77599-3 0  9993
2 51652  87.8813  32.3173 0001610  91.0959 269.0352 13.10369162211908
